format  = 'OEF1.1'       ! file format
rectype = 'ML'           ! record type (1L/ML)
refsys  = ECLM J2000     ! default reference system
END_OF_HEADER
mult_1
! Equinoctial elements: a, e*sin(LP), e*cos(LP), tan(i/2)*sin(LN), tan(i/2)*cos(LN), mean long.
 EQU   1.20941868389339E+00   0.001471282280736   0.253484464922001    0.010551097576370    0.006559834989911  49.3529085697529
 MJD     53349.055758380 TDT
 MAG  24.458  0.150
! RMS    6.63534E-04   1.01494E-05   5.18319E-04   1.74135E-05   1.19228E-05   5.44801E-02
! EIG   1.28736E-08   1.69105E-08   1.66358E-07   2.49356E-07   1.08069E-05   1.27023E-03
! WEA   0.52234  -0.00636   0.40805   0.01371   0.00939  -0.74856
 COV   4.402768962984142E-07 -5.317142710996688E-09  3.438989077182202E-07
 COV   1.155113552222149E-08  7.910527759287564E-09 -3.614453695907930E-05
 COV   1.030094998528241E-10 -4.190797554629351E-09 -1.416126379401938E-10
 COV  -9.637696760328599E-11  4.420517271031815E-07  2.686548616510511E-07
 COV   9.024604338023707E-09  6.179703323666796E-09 -2.823775964960037E-05
 COV   3.032291041989864E-10  2.076030360785685E-10 -9.485923580344820E-07
 COV   1.421529148888518E-10 -6.495350976527360E-07  2.968077980637696E-03
 NOR   1.685908242940693E+14 -5.477938746060125E+14  6.264420094777836E+14
 NOR   2.664146859271322E+13 -1.051890714514371E+14  8.079995694936278E+12
 NOR   1.842794172311341E+15 -2.184550765477577E+15 -6.781628218140402E+12
 NOR   5.794525204037391E+13 -2.771826812286477E+13  2.683140846023217E+15
 NOR  -7.378404442087016E+13  2.244634615072309E+14  3.350647580138130E+13
 NOR   2.682578003936728E+14 -9.011509149097901E+14 -4.879981567870076E+11
 NOR   3.236892069614702E+15  1.266264012056308E+12  4.214201926167477E+11
mult_2
! Equinoctial elements: a, e*sin(LP), e*cos(LP), tan(i/2)*sin(LN), tan(i/2)*cos(LN), mean long.
 EQU   1.20951825775788E+00   0.001470085580153   0.253562230136431    0.010553709382319    0.006561623538975  49.3447359604109
 MJD     53349.055758380 TDT
 MAG  24.458  0.150
! RMS    6.63987E-04   1.01451E-05   5.18533E-04   1.74185E-05   1.19269E-05   5.44988E-02
! EIG   1.28756E-08   1.69149E-08   1.66397E-07   2.49425E-07   1.08105E-05   1.27080E-03
! WEA   0.52246  -0.00635   0.40804   0.01370   0.00939  -0.74848
 COV   4.408793862490684E-07 -5.316343435781541E-09  3.442761110756491E-07
 COV   1.156240307086683E-08  7.918665511259748E-09 -3.618171179448357E-05
 COV   1.029233011870478E-10 -4.189059656766698E-09 -1.415377707650073E-10
 COV  -9.633048324774050E-11  4.418401291513791E-07  2.688765646346002E-07
 COV   9.030956313959623E-09  6.184382246656306E-09 -2.825913279073103E-05
 COV   3.034057323205506E-10  2.077350242017659E-10 -9.491952191151410E-07
 COV   1.422508660822182E-10 -6.499825090139773E-07  2.970121721079702E-03
 NOR   1.684703487940552E+14 -5.475396309373984E+14  6.260861210668724E+14
 NOR   2.662609549486432E+13 -1.051259803249564E+14  8.076121784755478E+12
 NOR   1.842414953584068E+15 -2.183878718126413E+15 -6.772497613951162E+12
 NOR   5.790549589937600E+13 -2.771209104217725E+13  2.682031130632636E+15
 NOR  -7.375668970770061E+13  2.243659259636522E+14  3.349542560475923E+13
 NOR   2.681348222434697E+14 -9.007107332617570E+14 -4.878129858090348E+11
 NOR   3.235193253714905E+15  1.265615574339412E+12  4.213172460631862E+11
mult_3
! Equinoctial elements: a, e*sin(LP), e*cos(LP), tan(i/2)*sin(LN), tan(i/2)*cos(LN), mean long.
 EQU   1.20961789966243E+00   0.001468889893169   0.253640027371470    0.010556321946596    0.006563412702704  49.3365605445382
 MJD     53349.055758380 TDT
 MAG  24.457  0.150
! RMS    6.64441E-04   1.01409E-05   5.18747E-04   1.74236E-05   1.19310E-05   5.45176E-02
! EIG   1.28777E-08   1.69193E-08   1.66436E-07   2.49495E-07   1.08141E-05   1.27137E-03
! WEA   0.52259  -0.00635   0.40802   0.01370   0.00938  -0.74840
 COV   4.414823534868290E-07 -5.315530298453481E-09  3.446534205980124E-07
 COV   1.157367068616104E-08  7.926804312233800E-09 -3.621889117009758E-05
 COV   1.028370081071296E-10 -4.187311145145228E-09 -1.414625565923221E-10
 COV  -9.628375772399233E-11  4.416274270279696E-07  2.690981819580599E-07
 COV   9.037303275156104E-09  6.189058340088908E-09 -2.828049280920419E-05
 COV   3.035821291723675E-10  2.078668715577336E-10 -9.497974305265314E-07
 COV   1.423487337484605E-10 -6.504295342755431E-07  2.972163677098143E-03
 NOR   1.683499354923284E+14 -5.472854990142111E+14  6.257304035312986E+14
 NOR   2.661072926517762E+13 -1.050629183497845E+14  8.072249660587139E+12
 NOR   1.842036037676978E+15 -2.183207060131500E+15 -6.763371019583072E+12
 NOR   5.786575959856061E+13 -2.770591875423953E+13  2.680921993851574E+15
 NOR  -7.372934724786769E+13  2.242684357466211E+14  3.348438186954939E+13
 NOR   2.680118966680073E+14 -9.002707452468516E+14 -4.876279052972093E+11
 NOR   3.233495218045860E+15  1.264967454291892E+12  4.212143770402816E+11
mult_4
! Equinoctial elements: a, e*sin(LP), e*cos(LP), tan(i/2)*sin(LN), tan(i/2)*cos(LN), mean long.
 EQU   1.20971760973809E+00   0.001467695220105   0.253717856698096    0.010558935271230    0.006565202482583  49.3283823154067
 MJD     53349.055758380 TDT
 MAG  24.457  0.150
! RMS    6.64896E-04   1.01366E-05   5.18961E-04   1.74287E-05   1.19351E-05   5.45363E-02
! EIG   1.28797E-08   1.69237E-08   1.66476E-07   2.49564E-07   1.08177E-05   1.27194E-03
! WEA   0.52271  -0.00634   0.40801   0.01370   0.00938  -0.74832
 COV   4.420864898321557E-07 -5.314711714216481E-09  3.450313759233976E-07
 COV   1.158495648608053E-08  7.934956570960856E-09 -3.625613178765601E-05
 COV   1.027507239439380E-10 -4.185558596982305E-09 -1.413872164174928E-10
 COV  -9.623694234019174E-11  4.414143121496029E-07  2.693201347295331E-07
 COV   9.043659362357276E-09  6.193741288094366E-09 -2.830188395677146E-05
 COV   3.037587696286561E-10  2.079989033501099E-10 -9.504004782930959E-07
 COV   1.424467405961828E-10 -6.508771911080825E-07  2.974208498956026E-03
 NOR   1.682295842813248E+14 -5.470314786203082E+14  6.253748565576538E+14
 NOR   2.659536989034454E+13 -1.049998854708955E+14  8.068379319098961E+12
 NOR   1.841657424367216E+15 -2.182535790982517E+15 -6.754248426469112E+12
 NOR   5.782604310196464E+13 -2.769975125525995E+13  2.679813434750165E+15
 NOR  -7.370201701902327E+13  2.241709907737199E+14  3.347334458716579E+13
 NOR   2.678890235627530E+14 -8.998309504877255E+14 -4.874429150996904E+11
 NOR   3.231797961131944E+15  1.264319651347370E+12  4.211115854814503E+11
mult_5
! Equinoctial elements: a, e*sin(LP), e*cos(LP), tan(i/2)*sin(LN), tan(i/2)*cos(LN), mean long.
 EQU   1.20981738805849E+00   0.001466501561958   0.253795718142404    0.010561549356739    0.006566992879063  49.3202012710056
 MJD     53349.055758380 TDT
 MAG  24.456  0.150
! RMS    6.65350E-04   1.01323E-05   5.19174E-04   1.74337E-05   1.19392E-05   5.45550E-02
! EIG   1.28818E-08   1.69281E-08   1.66515E-07   2.49633E-07   1.08213E-05   1.27251E-03
! WEA   0.52283  -0.00633   0.40799   0.01370   0.00938  -0.74825
 COV   4.426904035560425E-07 -5.313870723753286E-09  3.454088901603111E-07
 COV   1.159622396705010E-08  7.943097289288218E-09 -3.629331941660649E-05
 COV   1.026642429941301E-10 -4.183788780795565E-09 -1.413113060267532E-10
 COV  -9.618973284428845E-11  4.411993942327219E-07  2.695415743020084E-07
 COV   9.049996075835917E-09  6.198411572994559E-09 -2.832321704639908E-05
 COV   3.039346966262769E-10  2.081304641376643E-10 -9.510013673448128E-07
 COV   1.425444377512835E-10 -6.513234283592251E-07  2.976246813811415E-03
 NOR   1.681092951232720E+14 -5.467775696868689E+14  6.250194800385876E+14
 NOR   2.658001736595509E+13 -1.049368816697797E+14  8.064510759202516E+12
 NOR   1.841279113652218E+15 -2.181864910558522E+15 -6.745129831317258E+12
 NOR   5.778634639660634E+13 -2.769358854503150E+13  2.678705453040782E+15
 NOR  -7.367469901466597E+13  2.240735910190236E+14  3.346231375542120E+13
 NOR   2.677662028943925E+14 -8.993913488619114E+14 -4.872580151718952E+11
 NOR   3.230101482481066E+15  1.263672165314959E+12  4.210088713797939E+11
mult_6
! Equinoctial elements: a, e*sin(LP), e*cos(LP), tan(i/2)*sin(LN), tan(i/2)*cos(LN), mean long.
 EQU   1.20991723464251E+00   0.001465308920445   0.253873611687653    0.010564164202204    0.006568783891611  49.3120174138283
 MJD     53349.055758380 TDT
 MAG  24.455  0.150
! RMS    6.65805E-04   1.01281E-05   5.19388E-04   1.74388E-05   1.19433E-05   5.45738E-02
! EIG   1.28838E-08   1.69325E-08   1.66555E-07   2.49703E-07   1.08249E-05   1.27308E-03
! WEA   0.52296  -0.00632   0.40798   0.01370   0.00938  -0.74817
 COV   4.432968406494919E-07 -5.313040604382263E-09  3.457881057469431E-07
 COV   1.160754505913186E-08  7.951275733140190E-09 -3.633067917480010E-05
 COV   1.025779694725703E-10 -4.182027672882814E-09 -1.412356977157786E-10
 COV  -9.614272663586926E-11  4.409854030745887E-07  2.697641723954332E-07
 COV   9.056369544133433E-09  6.203107637355066E-09 -2.834466773937604E-05
 COV   3.041117947295657E-10  2.082628446541570E-10 -9.516059956243688E-07
 COV   1.426427092367878E-10 -6.517722855267910E-07  2.978297079942201E-03
 NOR   1.679890680463089E+14 -5.465237722841503E+14  6.246642740617009E+14
 NOR   2.656467169602004E+13 -1.048739069624942E+14  8.060643981930333E+12
 NOR   1.840901105736438E+15 -2.181194419106748E+15 -6.736015235854169E+12
 NOR   5.774666949134096E+13 -2.768743062672651E+13  2.677598049044714E+15
 NOR  -7.364739324326744E+13  2.239762365100058E+14  3.345128937818980E+13
 NOR   2.676434346969498E+14 -8.989519404880260E+14 -4.870732055706638E+11
 NOR   3.228405782531819E+15  1.263024996359013E+12  4.209062347848398E+11
